ONEWEB-0379             
1 49305U 21090AC  24296.87006780  .00000042  00000+0  78087-4 0  9991
2 49305  87.9017  49.4742 0001772 103.8748 256.2579 13.14501698148437
ONEWEB-0380             
1 49306U 21090AD  24296.89652395  .00000100  00000+0  21722-3 0  9991
2 49306  87.9158  64.7470 0001522  95.7361 264.3945 13.19722047146988
ONEWEB-0381             
1 49307U 21090AE  24296.81608572 -.00003492  00000+0 -86204-2 0  9996
2 49307  87.9292  34.2620 0001984  95.7224 264.4136 13.20789274150319
ONEWEB-0382             
1 49308U 21090AF  24296.80343187 -.00001767  00000+0 -43783-2 0  9992
2 49308  87.9288  34.2590 0001930 125.7950 234.3363 13.20787217150304
ONEWEB-0383             
1 49309U 21090AG  24296.78758742  .00000091  00000+0  21159-3 0  9998
2 49309  87.9013  49.4761 0001741 106.2209 253.9112 13.14504799148457
ONEWEB-0384             
1 49310U 21090AH  24296.80029511  .00002490  00000+0  60920-2 0  9991
2 49310  87.9296  34.2750 0002259 121.9670 238.1683 13.20759307150313
ONEWEB-0385             
1 49311U 21090AJ  24296.79557152  .00000015  00000+0  40291-5 0  9990
2 49311  87.9294  34.2770 0001610 109.6358 250.4949 13.20771531150281
ONEWEB-0386             
1 49312U 21090AK  24296.81293428  .00000051  00000+0  92797-4 0  9994
2 49312  87.9287  34.2591 0001626 110.6141 249.5167 13.20772423150309
